ONEWEB-0320             
1 49190U 21083E   24140.46088483  .00000103  00000+0  22743-3 0  9993
2 49190  87.9123 126.5034 0002071  86.0112 274.1257 13.18685552129985
ONEWEB-0321             
1 49191U 21083F   24140.87545465  .00000114  00000+0  24937-3 0  9996
2 49191  87.9219  65.3175 0002206  86.1126 274.0259 13.20774881138016
ONEWEB-0322             
1 49192U 21083G   24140.42591987  .00000018  00000+0  15275-4 0  9997
2 49192  87.8911 111.2778 0002548  90.7060 269.4361 13.13472877131312
ONEWEB-0324             
1 49193U 21083H   24140.44666070  .00000043  00000+0  76636-4 0  9992
2 49193  87.9123 126.4882 0002192  80.1691 279.9688 13.18687967130007
ONEWEB-0325             
1 49194U 21083J   24140.98253079 -.00000146  00000+0 -40275-3 0  9998
2 49194  87.9125 126.3954 0002129  89.2642 270.8734 13.18686456131369
ONEWEB-0326             
1 49195U 21083K   24140.99676385  .00000070  00000+0  14510-3 0  9996
2 49195  87.9122 126.3919 0001638  73.4181 286.7131 13.18688131131353
ONEWEB-0327             
1 49196U 21083L   24140.51542977 -.00000004  00000+0 -43001-4 0  9991
2 49196  87.9123 126.4996 0001699  80.7949 279.3376 13.18685111130039
ONEWEB-0328             
1 49197U 21083M   24140.94963844 -.00000508  00000+0 -14267-2 0  9998
2 49197  87.8899 111.1610 0002103  81.2394 278.8973 13.13470061132652
